CUTE-1 (CO-55)          
1 27844U 03031E   26195.92547578  .00000138  00000+0  78446-4 0  9996
2 27844  98.6742 204.1360 0010830 103.4126 256.8261 14.24351439195627
CUBESAT XI-IV (CO-57)   
1 27848U 03031J   26195.92787535  .00000113  00000+0  68510-4 0  9993
2 27848  98.6775 203.8287 0010552 120.2508 239.9717 14.23634433195325
CUBESAT XI-V            
1 28895U 05043F   26195.37665838  .00000686  00000+0  11575-3 0  9994
2 28895  98.3013 351.5747 0015230 117.6296 242.6459 14.72701135105754
CUTE-1.7+APD II (CO-65) 
1 32785U 08021C   26195.88960249  .00002921  00000+0  18541-3 0  9990
2 32785  97.8291 177.8918 0007028 300.6294  59.4241 15.09699520989372
CANX-2                  
1 32790U 08021H   26195.93349573  .00001628  00000+0  11675-3 0  9997
2 32790  97.8657 176.2568 0008721 319.2055  40.8517 15.05805474988989
SEEDS II (CO-66)        
1 32791U 08021J   26195.54652954  .00010410  00000+0  32244-3 0  9999
2 32791  97.7520 194.7703 0002981 157.5049 202.6324 15.33652134991489
SWISSCUBE               
1 35932U 09051B   26195.74040393  .00000468  00000+0  10206-3 0  9999
2 35932  98.4008 104.1063 0007823 120.2894 239.9082 14.62530263893188
BEESAT-1                
1 35933U 09051C   26195.69579758  .00000389  00000+0  87927-4 0  9993
2 35933  98.3936 103.6385 0006092 131.1262 229.0465 14.61761410893203
ITUPSAT1                
1 35935U 09051E   26195.71080867  .00000360  00000+0  84350-4 0  9992
2 35935  98.4019 102.8162 0008054 144.4895 215.6843 14.60478385892756
TISAT 1                 
1 36799U 10035E   26195.80674391  .00011961  00000+0  38103-3 0  9999
2 36799  98.0714 144.8302 0004489 120.8068 239.3614 15.32722087871930
STRAND-1                
1 39090U 13009E   26195.48684837  .00000131  00000+0  58407-4 0  9997
2 39090  98.3933  15.0510 0009374 143.0599 217.1235 14.37178635700984
BRITE-AUSTRIA           
1 39091U 13009F   26195.44191914  .00000082  00000+0  42362-4 0  9991
2 39091  98.4007  14.2048 0010722 152.8336 207.3414 14.36552341700968
NEE-01 PEGASO           
1 39151U 13018B   26195.32863187  .00001104  00000+0  10978-3 0  9996
2 39151  98.1252 340.3824 0013633  76.9613 283.3127 14.93786198714756
POPACS 2                
1 39269U 13055E   26195.48021384  .00012593 -92452-6  20479-3 0  9990
2 39269  80.9920 112.9412 0415023 106.1788 258.5512 14.91996677667281
POPACS 3                
1 39270U 13055F   26195.73674813  .00008356  00000+0  19836-3 0  9998
2 39270  80.9987 199.3021 0548835 346.0677  12.5866 14.56653048642568
ZACUBE-1 (TSHEPISOSAT)  
1 39417U 13066B   26195.93469404  .00001238  00000+0  99158-4 0  9991
2 39417  97.8008 158.4085 0044012 156.0408 204.2877 15.01328063684898
WNISAT-1                
1 39423U 13066H   26195.86705885  .00000614  00000+0  11942-3 0  9997
2 39423  97.7234 343.0633 0163867 144.3426 216.8854 14.58119587670761
TRITON-1                
1 39427U 13066M   26195.91524485  .00001397  00000+0  17151-3 0  9999
2 39427  97.8229 105.0894 0090583 143.0053 217.7453 14.81795900678196
GOMX-1                  
1 39430U 13066Q   26195.96695600  .00000760  00000+0  12075-3 0  9999
2 39430  97.6468  34.6766 0128270 348.9451  10.8942 14.69542717673991
CUBEBUG-2 (LO-74)       
1 39440U 13066AA  26195.86030594  .00001977  00000+0  18584-3 0  9996
2 39440  97.8912 144.9614 0055738 296.4824  63.0685 14.93965331681120
NEE-02 KRYSAOR          
1 39441U 13066AB  26195.80413297  .00001157  00000+0  13153-3 0  9993
2 39441  97.8897 134.8246 0065440 340.5806  19.2917 14.86737925680302
FUNCUBE-1 (AO-73)       
1 39444U 13066AE  26195.89500428  .00003450  00000+0  21408-3 0  9998
2 39444  97.8288 167.9280 0038000 108.6151 251.9210 15.09815503683840
UWE-3                   
1 39446U 13066AG  26195.81898914  .00001907  00000+0  16664-3 0  9995
2 39446  97.8706 152.0848 0047493 225.7627 133.9691 14.97197060681710
BRITE-CA1 (TORONTO)     
1 40020U 14033L   26195.89478549  .00000520  00000+0  85757-4 0  9996
2 40020  97.9771 324.3173 0078412 187.2199 172.7886 14.72722213646297
DUCHIFAT-1              
1 40021U 14033M   26195.66063349  .00097037  00000+0  77166-3 0  9993
2 40021  98.0414 258.8180 0002763 248.3674 111.7293 15.70920437660058
NANOSATC-BR1            
1 40024U 14033Q   26195.90098241  .00010292  00000+0  33240-3 0  9995
2 40024  98.0713 230.7608 0005307  96.0835 264.1010 15.32322459658225
QB50P1                  
1 40025U 14033R   26195.56334166  .00004361  00000+0  21396-3 0  9996
2 40025  98.0961 208.6368 0010316 126.4314 233.7871 15.18660627657181
QB50P2                  
1 40032U 14033Y   26195.90008996  .00003684  00000+0  19831-3 0  9999
2 40032  98.0760 194.5138 0009325  84.4982 275.7312 15.15504018656864
PERSEUS-M2              
1 40037U 14033AD  26195.96302285  .00001268  00000+0  11966-3 0  9995
2 40037  97.9978 147.0724 0010783 199.5992 160.4815 14.95592171654939
PERSEUS-M1              
1 40039U 14033AF  26195.79995826  .00001228  00000+0  11564-3 0  9997
2 40039  97.9653 140.3879 0010884 197.5999 162.4845 14.95714925654764
